*******************************************************************************
Ephemeris / WWW_USER Mon Mar 10 08:35:50 2025 Pasadena, USA      / Horizons    
*******************************************************************************
Target body name: (2017 UW51)                     {source: JPL#9}
Center body name: Earth (399)                     {source: DE441}
Center-site name: Mauna Kea
*******************************************************************************
Start time      : A.D. 2018-Nov-22 03:51:00.0000 UT      
Stop  time      : A.D. 2018-Nov-22 16:25:00.0000 UT      
Step-size       : 1 minutes
*******************************************************************************
Target pole/equ : undefined
Target radii    : undefined                                                    
Center geodetic : 204.5278, 19.8260847, 4.21024   {E-lon(deg),Lat(deg),Alt(km)}
Center cylindric: 204.5278, 6006.35451, 2151.0229 {E-lon(deg),Dxy(km),Dz(km)}
Center pole/equ : ITRF93                          {East-longitude positive}
Center radii    : 6378.137, 6378.137, 6356.752 km {Equator_a, b, pole_c}       
Target primary  : Sun
Vis. interferer : MOON (R_eq= 1737.400) km        {source: DE441}
Rel. light bend : Sun                             {source: DE441}
Rel. lght bnd GM: 1.3271E+11 km^3/s^2                                          
Small-body perts: Yes                             {source: SB441-N16}
Atmos refraction: NO (AIRLESS)
RA format       : HMS
Time format     : CAL 
Calendar mode   : Mixed Julian/Gregorian
RTS-only print  : NO       
EOP file        : eop.250307.p250603                                           
EOP coverage    : DATA-BASED 1962-JAN-20 TO 2025-MAR-07. PREDICTS-> 2025-JUN-02
Units conversion: 1 au= 149597870.700 km, c= 299792.458 km/s, 1 day= 86400.0 s 
Table cut-offs 1: Elevation (-90.0deg=NO ),Airmass (>38.000=NO), Daylight (YES)
Table cut-offs 2: Solar elongation (  0.0,180.0=NO ),Local Hour Angle( 0.0=NO )
Table cut-offs 3: RA/DEC angular rate (     0.0=NO )                           
*******************************************************************************
Initial IAU76/J2000 heliocentric ecliptic osculating elements (au, days, deg.):
  EPOCH=  2458075.5 ! 2017-Nov-18.00 (TDB)         Residual RMS= .20188        
   EC= .977323227404683    QR= 3.132710376610715   TP= 2458155.1551369466      
   OM= 241.7154477774366   W=  216.6888678209022   IN= 144.2025603349357       
  Equivalent ICRF heliocentric cartesian coordinates (au, au/d):
   X= 2.139353138138251E+00  Y= 2.375029509283225E+00  Z= 4.232007070438896E-01
  VX= 5.707101564767909E-03 VY=-6.350221743649190E-03 VZ=-1.041670648532765E-02
Asteroid physical parameters (km, seconds, rotational period in hours):        
   GM= n.a.                RAD= n.a.               ROTPER= n.a.                
   H= 15.3                 G= .150                 B-V= n.a.                   
                           ALBEDO= n.a.            STYP= n.a.                  
*******************************************************************************
 Date__(UT)__HR:MN     R.A._________(ICRF)_________DEC
******************************************************
$$SOE
 2018-Nov-22 05:54  m  21 35 03.683095 -50 19 16.27297
 2018-Nov-22 05:55  m  21 35 03.661293 -50 19 15.95783
 2018-Nov-22 05:56  m  21 35 03.639493 -50 19 15.64267
 2018-Nov-22 05:57  m  21 35 03.617695 -50 19 15.32749
 2018-Nov-22 05:58  m  21 35 03.595901 -50 19 15.01228
 2018-Nov-22 05:59  m  21 35 03.574110 -50 19 14.69705
 2018-Nov-22 06:00  m  21 35 03.552321 -50 19 14.38180
 2018-Nov-22 06:01  m  21 35 03.530536 -50 19 14.06652
 2018-Nov-22 06:02  m  21 35 03.508753 -50 19 13.75122
 2018-Nov-22 06:03  m  21 35 03.486973 -50 19 13.43590
 2018-Nov-22 06:04  m  21 35 03.465197 -50 19 13.12056
 2018-Nov-22 06:05  m  21 35 03.443423 -50 19 12.80519
 2018-Nov-22 06:06  m  21 35 03.421652 -50 19 12.48980
 2018-Nov-22 06:07  m  21 35 03.399884 -50 19 12.17438
 2018-Nov-22 06:08  m  21 35 03.378120 -50 19 11.85895
 2018-Nov-22 06:09  m  21 35 03.356358 -50 19 11.54349
 2018-Nov-22 06:10  m  21 35 03.334599 -50 19 11.22801
 2018-Nov-22 06:11  m  21 35 03.312843 -50 19 10.91250
 2018-Nov-22 06:12  m  21 35 03.291091 -50 19 10.59698
 2018-Nov-22 06:13  m  21 35 03.269341 -50 19 10.28143
 2018-Nov-22 06:14  m  21 35 03.247595 -50 19 09.96585
 2018-Nov-22 06:15  m  21 35 03.225851 -50 19 09.65026
 2018-Nov-22 06:16  m  21 35 03.204111 -50 19 09.33465
 2018-Nov-22 06:17  m  21 35 03.182374 -50 19 09.01901
 2018-Nov-22 06:18  m  21 35 03.160640 -50 19 08.70335
 2018-Nov-22 06:19  m  21 35 03.138909 -50 19 08.38767
 2018-Nov-22 06:20  m  21 35 03.117182 -50 19 08.07196
 2018-Nov-22 06:21  m  21 35 03.095457 -50 19 07.75624
 2018-Nov-22 06:22  m  21 35 03.073736 -50 19 07.44049
 2018-Nov-22 06:23  m  21 35 03.052018 -50 19 07.12472
 2018-Nov-22 06:24  m  21 35 03.030303 -50 19 06.80893
 2018-Nov-22 06:25  m  21 35 03.008591 -50 19 06.49312
 2018-Nov-22 06:26  m  21 35 02.986883 -50 19 06.17728
 2018-Nov-22 06:27  m  21 35 02.965178 -50 19 05.86143
 2018-Nov-22 06:28  m  21 35 02.943476 -50 19 05.54555
 2018-Nov-22 06:29  m  21 35 02.921778 -50 19 05.22966
 2018-Nov-22 06:30  m  21 35 02.900082 -50 19 04.91374
 2018-Nov-22 06:31  m  21 35 02.878391 -50 19 04.59780
 2018-Nov-22 06:32  m  21 35 02.856702 -50 19 04.28184
 2018-Nov-22 06:33  m  21 35 02.835017 -50 19 03.96586
 2018-Nov-22 06:34  m  21 35 02.813335 -50 19 03.64985
 2018-Nov-22 06:35  m  21 35 02.791656 -50 19 03.33383
 2018-Nov-22 06:36  m  21 35 02.769981 -50 19 03.01779
 2018-Nov-22 06:37  m  21 35 02.748310 -50 19 02.70172
 2018-Nov-22 06:38  m  21 35 02.726641 -50 19 02.38564
 2018-Nov-22 06:39  m  21 35 02.704976 -50 19 02.06953
 2018-Nov-22 06:40  m  21 35 02.683315 -50 19 01.75341
 2018-Nov-22 06:41  m  21 35 02.661657 -50 19 01.43726
 2018-Nov-22 06:42  m  21 35 02.640002 -50 19 01.12110
 2018-Nov-22 06:43  m  21 35 02.618351 -50 19 00.80491
 2018-Nov-22 06:44  m  21 35 02.596704 -50 19 00.48871
 2018-Nov-22 06:45  m  21 35 02.575059 -50 19 00.17248
 2018-Nov-22 06:46  m  21 35 02.553419 -50 18 59.85624
 2018-Nov-22 06:47  m  21 35 02.531782 -50 18 59.53997
 2018-Nov-22 06:48  m  21 35 02.510148 -50 18 59.22369
 2018-Nov-22 06:49  m  21 35 02.488518 -50 18 58.90738
 2018-Nov-22 06:50  m  21 35 02.466892 -50 18 58.59106
 2018-Nov-22 06:51  m  21 35 02.445269 -50 18 58.27472
 2018-Nov-22 06:52  m  21 35 02.423649 -50 18 57.95835
 2018-Nov-22 06:53  m  21 35 02.402034 -50 18 57.64197
 2018-Nov-22 06:54  m  21 35 02.380421 -50 18 57.32557
 2018-Nov-22 06:55  m  21 35 02.358813 -50 18 57.00915
 2018-Nov-22 06:56  m  21 35 02.337208 -50 18 56.69271
 2018-Nov-22 06:57  m  21 35 02.315607 -50 18 56.37626
 2018-Nov-22 06:58  m  21 35 02.294009 -50 18 56.05978
 2018-Nov-22 06:59  m  21 35 02.272415 -50 18 55.74328
 2018-Nov-22 07:00  m  21 35 02.250825 -50 18 55.42677
 2018-Nov-22 07:01  m  21 35 02.229238 -50 18 55.11024
 2018-Nov-22 07:02  m  21 35 02.207655 -50 18 54.79369
 2018-Nov-22 07:03  m  21 35 02.186076 -50 18 54.47712
 2018-Nov-22 07:04  m  21 35 02.164501 -50 18 54.16053
 2018-Nov-22 07:05  m  21 35 02.142929 -50 18 53.84393
 2018-Nov-22 07:06  m  21 35 02.121361 -50 18 53.52730
 2018-Nov-22 07:07  m  21 35 02.099796 -50 18 53.21066
 2018-Nov-22 07:08  m  21 35 02.078236 -50 18 52.89400
 2018-Nov-22 07:09  m  21 35 02.056679 -50 18 52.57733
 2018-Nov-22 07:10  m  21 35 02.035126 -50 18 52.26063
 2018-Nov-22 07:11  m  21 35 02.013577 -50 18 51.94392
 2018-Nov-22 07:12  m  21 35 01.992032 -50 18 51.62719
 2018-Nov-22 07:13  m  21 35 01.970490 -50 18 51.31044
 2018-Nov-22 07:14  m  21 35 01.948952 -50 18 50.99368
 2018-Nov-22 07:15  m  21 35 01.927418 -50 18 50.67690
 2018-Nov-22 07:16  m  21 35 01.905888 -50 18 50.36010
 2018-Nov-22 07:17  m  21 35 01.884362 -50 18 50.04328
 2018-Nov-22 07:18  m  21 35 01.862840 -50 18 49.72645
 2018-Nov-22 07:19  m  21 35 01.841321 -50 18 49.40960
 2018-Nov-22 07:20  m  21 35 01.819807 -50 18 49.09274
 2018-Nov-22 07:21  m  21 35 01.798296 -50 18 48.77585
 2018-Nov-22 07:22  m  21 35 01.776789 -50 18 48.45896
 2018-Nov-22 07:23  m  21 35 01.755286 -50 18 48.14204
 2018-Nov-22 07:24  m  21 35 01.733787 -50 18 47.82511
 2018-Nov-22 07:25  m  21 35 01.712292 -50 18 47.50816
 2018-Nov-22 07:26  m  21 35 01.690801 -50 18 47.19120
 2018-Nov-22 07:27  m  21 35 01.669314 -50 18 46.87421
 2018-Nov-22 07:28  m  21 35 01.647831 -50 18 46.55722
 2018-Nov-22 07:29  m  21 35 01.626352 -50 18 46.24021
 2018-Nov-22 07:30  m  21 35 01.604877 -50 18 45.92318
 2018-Nov-22 07:31  m  21 35 01.583406 -50 18 45.60614
 2018-Nov-22 07:32  m  21 35 01.561939 -50 18 45.28908
 2018-Nov-22 07:33  m  21 35 01.540476 -50 18 44.97200
 2018-Nov-22 07:34  m  21 35 01.519017 -50 18 44.65491
 2018-Nov-22 07:35  m  21 35 01.497562 -50 18 44.33781
 2018-Nov-22 07:36  m  21 35 01.476111 -50 18 44.02069
 2018-Nov-22 07:37  m  21 35 01.454664 -50 18 43.70355
 2018-Nov-22 07:38  m  21 35 01.433221 -50 18 43.38640
 2018-Nov-22 07:39  m  21 35 01.411782 -50 18 43.06924
 2018-Nov-22 07:40  m  21 35 01.390347 -50 18 42.75206
 2018-Nov-22 07:41  m  21 35 01.368917 -50 18 42.43486
 2018-Nov-22 07:42  m  21 35 01.347490 -50 18 42.11765
 2018-Nov-22 07:43  m  21 35 01.326068 -50 18 41.80043
 2018-Nov-22 07:44  m  21 35 01.304649 -50 18 41.48319
 2018-Nov-22 07:45  m  21 35 01.283235 -50 18 41.16594
 2018-Nov-22 07:46  m  21 35 01.261825 -50 18 40.84867
 2018-Nov-22 07:47  m  21 35 01.240419 -50 18 40.53139
 2018-Nov-22 07:48  m  21 35 01.219018 -50 18 40.21410
 2018-Nov-22 07:49  m  21 35 01.197620 -50 18 39.89679
 2018-Nov-22 07:50  m  21 35 01.176227 -50 18 39.57947
 2018-Nov-22 07:51  m  21 35 01.154837 -50 18 39.26214
 2018-Nov-22 07:52  m  21 35 01.133452 -50 18 38.94479
 2018-Nov-22 07:53  m  21 35 01.112072 -50 18 38.62743
 2018-Nov-22 07:54  m  21 35 01.090695 -50 18 38.31005
 2018-Nov-22 07:55  m  21 35 01.069323 -50 18 37.99266
 2018-Nov-22 07:56  m  21 35 01.047954 -50 18 37.67526
